AISTECHSAT 2            
1 43768U 18099L   26168.61720720  .00004656  00000+0  24964-3 0  9991
2 43768  97.4289 216.6419 0003161 307.9037  52.1909 15.15452752412345
FOX-1CLIFF (AO-95)      
1 43770U 18099N   26168.40539693  .00008770  00000+0  33623-3 0  9991
2 43770  97.4379 228.6506 0007951 357.1065   3.0126 15.26715554413258
RANGE-A                 
1 43773U 18099R   26168.70696716  .00003418  00000+0  19490-3 0  9997
2 43773  97.3960 211.2709 0009769 355.5696   4.5447 15.13393523412570
SNUSAT-2                
1 43782U 18099AA  26168.66206763  .00006004  00000+0  26699-3 0  9994
2 43782  97.4054 222.0387 0008585 296.5021  63.5334 15.21844090413107
SNUGLITE                
1 43784U 18099AC  26168.66785703  .00009168  00000+0  34663-3 0  9996
2 43784  97.3862 222.9431 0001206 287.0263  73.0844 15.27188145413391
ITASAT                  
1 43786U 18099AE  26168.61452307  .00005652  00000+0  27237-3 0  9997
2 43786  97.4024 220.1177 0012039 358.8132   1.3072 15.19062139412974
EAGLET-I                
1 43790U 18099AJ  26168.64806279  .00002706  00000+0  15702-3 0  9997
2 43790  97.4227 218.3046 0010619 352.9170   7.1910 15.12942431412405
ESEO                    
1 43792U 18099AL  26168.64596791  .00001685  00000+0  12520-3 0  9994
2 43792  97.3975 206.0143 0011259 338.4959  21.5793 15.04249787411877
THEA                    
1 43796U 18099AQ  26168.72362443  .00014375  00000+0  42487-3 0  9997
2 43796  97.4440 238.4209 0005862 280.4320  79.6263 15.35029307412776
ASTROCAST 0.1           
1 43798U 18099AS  26168.77799845  .00029537  00000+0  53529-3 0  9999
2 43798  97.4371 247.2935 0005175 201.8725 158.2306 15.49572058414526
JY1SAT (JO-97)          
1 43803U 18099AX  26168.16099664  .00012621  00000+0  39004-3 0  9999
2 43803  97.4126 230.9950 0004332 262.3288  97.7462 15.33652151413623
SUOMI-100               
1 43804U 18099AY  26168.73001218  .00009773  00000+0  35543-3 0  9999
2 43804  97.4180 229.1213 0008368 276.6398  83.3889 15.28425014413500
CENTAURI-1              
1 43809U 18099BD  26168.66798253  .00004069  00000+0  21264-3 0  9996
2 43809  97.4218 220.3773 0013029 332.1745  27.8789 15.16370185412578
GLOBAL-2                
1 43812U 18099BG  26168.67176265  .00002122  00000+0  13919-3 0  9990
2 43812  97.3550 205.1652 0006975 141.1410 219.0322 15.08673241411988
SEAHAWK-1               
1 43820U 18099BQ  26168.72767677  .00006443  00000+0  27831-3 0  9996
2 43820  97.3951 221.2049 0006698 313.5327  46.5353 15.22815015412616
SAUDISAT 5A             
1 43831U 18102A   26168.88516090  .00004578  00000+0  16976-3 0  9996
2 43831  97.3065 230.4528 0011049 126.9359 233.2894 15.28054500415781
SAUDISAT 5B             
1 43833U 18102C   26168.83841389  .00004331  00000+0  15947-3 0  9999
2 43833  97.3172 233.4777 0011722 129.2727 230.9554 15.28310245415894
ISAT                    
1 43879U 18111D   26168.80148904  .00082225  00000+0  82021-3 0  9994
2 43879  97.5886 104.0698 0001064 148.9986 211.1336 15.65390296411267
UWE-4                   
1 43880U 18111E   26168.79759647  .00027737  00000+0  56593-3 0  9998
2 43880  97.5854  97.2166 0005426 339.8201  20.2832 15.46158858410875
D-STAR ONE (SPARROW)    
1 43881U 18111F   26168.83018448  .00136990  00000+0  92678-3 0  9997
2 43881  97.6120 109.7297 0004445 113.5899 246.5832 15.74617867411478
JILIN-1 09              
1 43943U 19005B   26168.83811297  .00003629  00000+0  16912-3 0  9991
2 43943  97.4742 263.7948 0003779  93.3033 266.8634 15.20519643409244
JILIN-1 10              
1 43946U 19005E   26168.84801633  .00004704  00000+0  18728-3 0  9990
2 43946  97.4790 267.6520 0006565 276.1826  83.8664 15.25728770409413
EGYPTSAT-A (MISRSAT-A)  
1 44047U 19008A   26168.82285682  .00000676  00000+0  11475-3 0  9990
2 44047  98.0187 233.5749 0001284  94.2665 265.8689 14.72309101393337
EMISAT                  
1 44078U 19018A   26168.83740819  .00000052  00000+0  28241-4 0  9992
2 44078  98.4645 227.6343 0017728 212.6475 147.3620 14.43686871380158
JILIN-1 GAOFEN 3A       
1 44312U 19032C   26168.80211764  .00009260  00000+0  29734-3 0  9995
2 44312  44.9754 353.5520 0006425 298.8918  61.1322 15.32639990387936
WT 1B                   
1 44316U 19032G   26168.85361609  .00006919  00000+0  26518-3 0  9993
2 44316  44.9723  57.3009 0009951 252.2022 107.7775 15.27191100387180
PROX-1                  
1 44339U 19036A   26168.19115727  .00010269  00000+0  99479-3 0  9996
2 44339  23.9926 114.2231 0005753  36.9692 323.1203 14.90607207373479
NPSAT1                  
1 44340U 19036B   26167.84671889  .00003869  00000+0  53159-3 0  9998
2 44340  23.9973 219.9806 0007222 202.4838 157.5341 14.74576836372442
